[{"OBJECT_NAME":"STARLINK-36141","OBJECT_ID":"2025-294AD","EPOCH":"2026-03-09T23:11:36.115872","MEAN_MOTION":15.27597691,"ECCENTRICITY":0.00014316,"INCLINATION":43.0074,"RA_OF_ASC_NODE":36.3312,"ARG_OF_PERICENTER":240.6042,"MEAN_ANOMALY":119.4667,"EPHEMERIS_TYPE":0,"CLASSIFICATION_TYPE":"U","NORAD_CAT_ID":67057,"ELEMENT_SET_NO":999,"REV_AT_EPOCH":1484,"BSTAR":0.0010377835,"MEAN_MOTION_DOT":0.00028421,"MEAN_MOTION_DDOT":0},{"OBJECT_NAME":"SIMSAT 1","OBJECT_ID":"2000-026A","EPOCH":"2026-03-09T17:22:54.646176","MEAN_MOTION":15.27666538,"ECCENTRICITY":0.00084816,"INCLINATION":86.3501,"RA_OF_ASC_NODE":180.5413,"ARG_OF_PERICENTER":14.8337,"MEAN_ANOMALY":345.3157,"EPHEMERIS_TYPE":0,"CLASSIFICATION_TYPE":"U","NORAD_CAT_ID":26365,"ELEMENT_SET_NO":999,"REV_AT_EPOCH":42720,"BSTAR":0.00013499313,"MEAN_MOTION_DOT":3.69e-5,"MEAN_MOTION_DDOT":0}]
